IRIDIUM 116             
1 43072U 17083C   25210.74489775  .00000032  00000+0  42836-5 0  9998
2 43072  86.3944  96.8218 0002061  91.8601 268.2830 14.34217744397959
IRIDIUM 130             
1 43073U 17083D   25210.43411032  .00000071  00000+0  18368-4 0  9991
2 43073  86.3955  97.1958 0001821  90.9819 269.1586 14.34217680397857
IRIDIUM 151             
1 43074U 17083E   25210.40874008 -.00000031  00000+0 -18138-4 0  9998
2 43074  86.3948  97.0127 0001969  91.9333 268.2088 14.34217311397872
IRIDIUM 134             
1 43075U 17083F   25210.72586937  .00000007  00000+0 -45292-5 0  9999
2 43075  86.3948  96.8836 0001767  88.4538 271.6860 14.34217517397886
IRIDIUM 137             
1 43076U 17083G   25210.80832445 -.00000017  00000+0 -13082-4 0  9990
2 43076  86.3952  96.9355 0002320  99.6421 260.5037 14.34217344397960
IRIDIUM 141             
1 43077U 17083H   25210.59267511  .00000287  00000+0  95459-4 0  9998
2 43077  86.3946  96.8747 0002245  80.8698 279.2752 14.34217751397932
IRIDIUM 153             
1 43078U 17083J   25210.54485244  .00000146  00000+0  45094-4 0  9993
2 43078  86.3926  65.3501 0002204  75.4507 284.6933 14.34217027399034
IRIDIUM 131             
1 43079U 17083K   25210.44045330  .00000006  00000+0 -49863-5 0  9996
2 43079  86.3955  97.1029 0002183  83.9006 276.2439 14.34217630397844
